{
  "type": "FeatureCollection",
  "features": [
    {
      "type": "Feature",
      "properties": {
        "norad_id": 36224,
        "name": "FENGYUN 1C DEB",
        "group": "fengyun-1c-debris",
        "lat": 8.549863912758658,
        "lon": -144.47092645621325,
        "alt_km": 934.5648295743858,
        "timestamp": "2025-12-12T20:43:07.323181+00:00",
        "meta_object_name": "FENGYUN 1C DEB",
        "meta_object_id": "1999-025DUZ",
        "meta_epoch": "2025-12-10T20:19:03.114048",
        "meta_mean_motion": 14.1276103,
        "meta_eccentricity": 0.0114684,
        "meta_inclination": 98.7804,
        "meta_ra_of_asc_node": 32.2203,
        "meta_arg_of_pericenter": 357.4017,
        "meta_mean_anomaly": 2.6546,
        "meta_ephemeris_type": 0,
        "meta_classification_type": "U",
        "meta_norad_cat_id": 36224,
        "meta_element_set_no": 999,
        "meta_rev_at_epoch": 64405,
        "meta_bstar": 0.00016786,
        "meta_mean_motion_dot": 2.88e-06,
        "meta_mean_motion_ddot": 0,
        "tle_line1": "1 36224U 99025DUZ 25344.84656382  .00000288  00000+0  16786-3 0  9990",
        "tle_line2": "2 36224  98.7804  32.2203 0114684 357.4017   2.6546 14.12761030644055"
      },
      "geometry": {
        "type": "Point",
        "coordinates": [
          -144.47092645621325,
          8.549863912758658
        ]
      }
    },
    {
      "type": "Feature",
      "properties": {
        "norad_id": 36225,
        "name": "FENGYUN 1C DEB",
        "group": "fengyun-1c-debris",
        "lat": -25.720499393208282,
        "lon": 112.57075429978316,
        "alt_km": 531.7154444255857,
        "timestamp": "2025-12-12T20:43:07.323192+00:00",
        "meta_object_name": "FENGYUN 1C DEB",
        "meta_object_id": "1999-025DVA",
        "meta_epoch": "2025-12-11T03:22:25.516704",
        "meta_mean_motion": 15.05886228,
        "meta_eccentricity": 0.00436396,
        "meta_inclination": 98.8181,
        "meta_ra_of_asc_node": 106.3139,
        "meta_arg_of_pericenter": 296.8088,
        "meta_mean_anomaly": 62.8675,
        "meta_ephemeris_type": 0,
        "meta_classification_type": "U",
        "meta_norad_cat_id": 36225,
        "meta_element_set_no": 999,
        "meta_rev_at_epoch": 66748,
        "meta_bstar": 0.0037986718,
        "meta_mean_motion_dot": 0.00056719,
        "meta_mean_motion_ddot": 0,
        "tle_line1": "1 36225U 99025DVA 25345.14057311  .00056719  00000+0  37987-2 0  9997",
        "tle_line2": "2 36225  98.8181 106.3139 0043639 296.8088  62.8675 15.05886228667484"
      },
      "geometry": {
        "type": "Point",
        "coordinates": [
          112.57075429978316,
          -25.720499393208282
        ]
      }
    },
    {
      "type": "Feature",
      "properties": {
        "norad_id": 36226,
        "name": "FENGYUN 1C DEB",
        "group": "fengyun-1c-debris",
        "lat": -36.77961408781349,
        "lon": 35.86737401259251,
        "alt_km": 827.0748923138635,
        "timestamp": "2025-12-12T20:43:07.323202+00:00",
        "meta_object_name": "FENGYUN 1C DEB",
        "meta_object_id": "1999-025DVB",
        "meta_epoch": "2025-12-05T08:24:08.459424",
        "meta_mean_motion": 14.10238341,
        "meta_eccentricity": 0.00958599,
        "meta_inclination": 98.6088,
        "meta_ra_of_asc_node": 22.1717,
        "meta_arg_of_pericenter": 41.8631,
        "meta_mean_anomaly": 318.982,
        "meta_ephemeris_type": 0,
        "meta_classification_type": "U",
        "meta_norad_cat_id": 36226,
        "meta_element_set_no": 999,
        "meta_rev_at_epoch": 63658,
        "meta_bstar": 0.0024391454,
        "meta_mean_motion_dot": 4.471e-05,
        "meta_mean_motion_ddot": 0,
        "tle_line1": "1 36226U 99025DVB 25339.35009791  .00004471  00000+0  24391-2 0  9996",
        "tle_line2": "2 36226  98.6088  22.1717 0095859  41.8631 318.9820 14.10238341636585"
      },
      "geometry": {
        "type": "Point",
        "coordinates": [
          35.86737401259251,
          -36.77961408781349
        ]
      }
    },
    {
      "type": "Feature",
      "properties": {
        "norad_id": 36229,
        "name": "FENGYUN 1C DEB",
        "group": "fengyun-1c-debris",
        "lat": 78.97830818727392,
        "lon": 124.07487307151497,
        "alt_km": 799.508638814902,
        "timestamp": "2025-12-12T20:43:07.323212+00:00",
        "meta_object_name": "FENGYUN 1C DEB",
        "meta_object_id": "1999-025DVE",
        "meta_epoch": "2025-12-10T20:31:15.732480",
        "meta_mean_motion": 14.07174433,
        "meta_eccentricity": 0.01025458,
        "meta_inclination": 100.925,
        "meta_ra_of_asc_node": 204.236,
        "meta_arg_of_pericenter": 127.5595,
        "meta_mean_anomaly": 233.4936,
        "meta_ephemeris_type": 0,
        "meta_classification_type": "U",
        "meta_norad_cat_id": 36229,
        "meta_element_set_no": 999,
        "meta_rev_at_epoch": 63229,
        "meta_bstar": 0.0021853146,
        "meta_mean_motion_dot": 3.782e-05,
        "meta_mean_motion_ddot": 0,
        "tle_line1": "1 36229U 99025DVE 25344.85504320  .00003782  00000+0  21853-2 0  9992",
        "tle_line2": "2 36229 100.9250 204.2360 0102545 127.5595 233.4936 14.07174433632295"
      },
      "geometry": {
        "type": "Point",
        "coordinates": [
          124.07487307151497,
          78.97830818727392
        ]
      }
    },
    {
      "type": "Feature",
      "properties": {
        "norad_id": 36230,
        "name": "FENGYUN 1C DEB",
        "group": "fengyun-1c-debris",
        "lat": -59.50312844194011,
        "lon": 78.53649050441679,
        "alt_km": 1135.1670038084285,
        "timestamp": "2025-12-12T20:43:07.323222+00:00",
        "meta_object_name": "FENGYUN 1C DEB",
        "meta_object_id": "1999-025DVF",
        "meta_epoch": "2025-12-09T10:57:40.047264",
        "meta_mean_motion": 13.75251341,
        "meta_eccentricity": 0.02176389,
        "meta_inclination": 99.5242,
        "meta_ra_of_asc_node": 58.5726,
        "meta_arg_of_pericenter": 150.5804,
        "meta_mean_anomaly": 210.7803,
        "meta_ephemeris_type": 0,
        "meta_classification_type": "U",
        "meta_norad_cat_id": 36230,
        "meta_element_set_no": 999,
        "meta_rev_at_epoch": 61841,
        "meta_bstar": 0.0029401573,
        "meta_mean_motion_dot": 3.306e-05,
        "meta_mean_motion_ddot": 0,
        "tle_line1": "1 36230U 99025DVF 25343.45671351  .00003306  00000+0  29402-2 0  9998",
        "tle_line2": "2 36230  99.5242  58.5726 0217638 150.5804 210.7803 13.75251341618413"
      },
      "geometry": {
        "type": "Point",
        "coordinates": [
          78.53649050441679,
          -59.50312844194011
        ]
      }
    },
    {
      "type": "Feature",
      "properties": {
        "norad_id": 36231,
        "name": "FENGYUN 1C DEB",
        "group": "fengyun-1c-debris",
        "lat": -32.522198774960174,
        "lon": 136.19643881666292,
        "alt_km": 880.5095611551869,
        "timestamp": "2025-12-12T20:43:07.323235+00:00",
        "meta_object_name": "FENGYUN 1C DEB",
        "meta_object_id": "1999-025DVG",
        "meta_epoch": "2025-12-11T04:35:40.220736",
        "meta_mean_motion": 14.1200594,
        "meta_eccentricity": 0.00606139,
        "meta_inclination": 98.6885,
        "meta_ra_of_asc_node": 320.1718,
        "meta_arg_of_pericenter": 337.9467,
        "meta_mean_anomaly": 21.9099,
        "meta_ephemeris_type": 0,
        "meta_classification_type": "U",
        "meta_norad_cat_id": 36231,
        "meta_element_set_no": 999,
        "meta_rev_at_epoch": 85521,
        "meta_bstar": 0.00021836062,
        "meta_mean_motion_dot": 3.64e-06,
        "meta_mean_motion_ddot": 0,
        "tle_line1": "1 36231U 99025DVG 25345.19143774  .00000364  00000+0  21836-3 0  9990",
        "tle_line2": "2 36231  98.6885 320.1718 0060613 337.9467  21.9099 14.12005940855215"
      },
      "geometry": {
        "type": "Point",
        "coordinates": [
          136.19643881666292,
          -32.522198774960174
        ]
      }
    },
    {
      "type": "Feature",
      "properties": {
        "norad_id": 36232,
        "name": "FENGYUN 1C DEB",
        "group": "fengyun-1c-debris",
        "lat": 73.9649504284163,
        "lon": -176.88298112745443,
        "alt_km": 821.5880778907476,
        "timestamp": "2025-12-12T20:43:07.323245+00:00",
        "meta_object_name": "FENGYUN 1C DEB",
        "meta_object_id": "1999-025DVH",
        "meta_epoch": "2025-12-10T17:14:17.921472",
        "meta_mean_motion": 14.12497625,
        "meta_eccentricity": 0.01190984,
        "meta_inclination": 98.7048,
        "meta_ra_of_asc_node": 328.8206,
        "meta_arg_of_pericenter": 33.8306,
        "meta_mean_anomaly": 327.0393,
        "meta_ephemeris_type": 0,
        "meta_classification_type": "U",
        "meta_norad_cat_id": 36232,
        "meta_element_set_no": 999,
        "meta_rev_at_epoch": 61707,
        "meta_bstar": 0.00052834045,
        "meta_mean_motion_dot": 1.001e-05,
        "meta_mean_motion_ddot": 0,
        "tle_line1": "1 36232U 99025DVH 25344.71826298  .00001001  00000+0  52834-3 0  9998",
        "tle_line2": "2 36232  98.7048 328.8206 0119098  33.8306 327.0393 14.12497625617073"
      },
      "geometry": {
        "type": "Point",
        "coordinates": [
          -176.88298112745443,
          73.9649504284163
        ]
      }
    }
  ]
}